STARLINK-37612          
1 69039U 26101Q   26132.83335648 -.02224738  13005-2 -77265-2 0  9991
2 69039  97.2890 346.9504 0001194 103.5773 247.4378 15.89572160  2287
