{
  "norad_id": 69039,
  "name": "STARLINK-37612",
  "history": [
    {
      "epoch": "2026-05-12T20:00:01.999008Z",
      "apogee_km": 304.27996808080115,
      "perigee_km": 302.6830612557942,
      "latitude_deg": -9.108128408103338,
      "longitude_deg": 177.50823182754297,
      "height_km": 308.60281957322053,
      "semi_major_axis_km": 6681.618514668297,
      "eccentricity": 0.0001195,
      "inclination_deg": 97.289,
      "raan_deg": 346.9504,
      "arg_perigee_deg": 103.5773,
      "mean_anomaly_deg": 247.4378,
      "mean_motion_rev_day": 15.8957216
    }
  ]
}